IXPE                    
1 49954U 21121A   24118.58334491  .00009160  00000+0  69500-3 0  9999
2 49954   0.2315  48.5858 0010079 250.3643 121.2669 14.97519192  5305
